ONEWEB-0120             
1 47266U 20100J   26190.71894039  .00000388  00000+0  10424-2 0  9998
2 47266  87.8956 346.1888 0002025  96.3181 263.8179 13.12443624267680
ONEWEB-0121             
1 47267U 20100K   26189.94456784  .00000027  00000+0  40190-4 0  9998
2 47267  87.8963 346.3308 0001527  95.3688 264.7615 13.12443326267498
ONEWEB-0122             
1 47268U 20100L   26189.93863140 -.00000146  00000+0 -44152-3 0  9991
2 47268  87.8964 346.3369 0001926 100.1600 259.9746 13.12445473267406
ONEWEB-0123             
1 47269U 20100M   26189.93440013 -.00000332  00000+0 -95936-3 0  9995
2 47269  87.8953 346.3425 0001896  92.4971 267.6375 13.12443024267547
ONEWEB-0124             
1 47270U 20100N   26190.68660615 -.00000346  00000+0 -99826-3 0  9990
2 47270  87.8950 346.1959 0001725  93.9916 266.1409 13.12442316267525
ONEWEB-0125             
1 47271U 20100P   26190.66458897  .00000322  00000+0  85859-3 0  9999
2 47271  87.8962 346.1859 0001643  86.7941 273.3376 13.12442056267585
ONEWEB-0126             
1 47272U 20100Q   26189.92268865 -.00000393  00000+0 -11265-2 0  9990
2 47272  87.8954 346.3481 0001947  94.5078 265.6274 13.12442139267555
ONEWEB-0127             
1 47273U 20100R   26189.81243174  .00000443  00000+0  11959-2 0  9999
2 47273  87.8953 346.3671 0001981  96.5027 263.6328 13.12442873267564
ONEWEB-0128             
1 47274U 20100S   26190.67305850  .00000005  00000+0 -21342-4 0  9990
2 47274  87.8955 346.2097 0001718 105.7917 254.3401 13.12441658267690
ONEWEB-0129             
1 47275U 20100T   26190.72896963  .00000495  00000+0  13412-2 0  9996
2 47275  87.8959 346.1747 0002898  97.6796 262.4662 13.12442724267638
ONEWEB-0130             
1 47276U 20100U   26190.67983527 -.00000214  00000+0 -63150-3 0  9990
2 47276  87.8963 346.1802 0001858  98.4649 261.6690 13.12441614267591
ONEWEB-0131             
1 47277U 20100V   26190.67644870 -.00000094  00000+0 -29606-3 0  9990
2 47277  87.8952 346.1970 0001765  99.6175 260.5153 13.12441343267636
ONEWEB-0132             
1 47278U 20100W   26189.94287309  .00000006  00000+0 -17828-4 0  9995
2 47278  87.8956 346.3449 0001816  97.2124 262.9211 13.12443439267436
ONEWEB-0133             
1 47279U 20100X   26190.72205082  .00000397  00000+0  10678-2 0  9998
2 47279  87.8968 346.1685 0001768  99.4588 260.6741 13.12443976267691
ONEWEB-0134             
1 47280U 20100Y   26190.69168792 -.00000434  00000+0 -12429-2 0  9992
2 47280  87.8966 346.1718 0001978 102.5380 257.5969 13.12441743267661
ONEWEB-0135             
1 47281U 20100Z   26189.82428461  .00000125  00000+0  31246-3 0  9992
2 47281  87.8952 346.3640 0001886 105.6652 254.4685 13.12441869267577
