{"fetched_at":"2026-07-10T07:58:41.598Z","source":"https://celestrak.org/NORAD/elements/gp.php?GROUP=oneweb&FORMAT=JSON","constellation":"oneweb","records":[{"OBJECT_NAME":"ONEWEB-0120","OBJECT_ID":"2020-100J","EPOCH":"2026-07-09T17:15:16.449696","CLASSIFICATION_TYPE":"U","MEAN_MOTION":13.12443624,"ECCENTRICITY":0.0002025,"INCLINATION":87.8956,"RA_OF_ASC_NODE":346.1888,"ARG_OF_PERICENTER":96.3181,"MEAN_ANOMALY":263.8179,"EPHEMERIS_TYPE":0,"NORAD_CAT_ID":47266,"ELEMENT_SET_NO":999,"REV_AT_EPOCH":26768,"BSTAR":0.0010424,"MEAN_MOTION_DOT":0.00000388,"MEAN_MOTION_DDOT":0},{"OBJECT_NAME":"ONEWEB-0121","OBJECT_ID":"2020-100K","EPOCH":"2026-07-08T22:40:10.661376","CLASSIFICATION_TYPE":"U","MEAN_MOTION":13.12443326,"ECCENTRICITY":0.00015271,"INCLINATION":87.8963,"RA_OF_ASC_NODE":346.3308,"ARG_OF_PERICENTER":95.3688,"MEAN_ANOMALY":264.7615,"EPHEMERIS_TYPE":0,"NORAD_CAT_ID":47267,"ELEMENT_SET_NO":999,"REV_AT_EPOCH":26749,"BSTAR":0.000040189807,"MEAN_MOTION_DOT":2.7e-7,"MEAN_MOTION_DDOT":0},{"OBJECT_NAME":"ONEWEB-0122","OBJECT_ID":"2020-100L","EPOCH":"2026-07-08T22:31:37.752960","CLASSIFICATION_TYPE":"U","MEAN_MOTION":13.12445473,"ECCENTRICITY":0.00019266,"INCLINATION":87.8964,"RA_OF_ASC_NODE":346.3369,"ARG_OF_PERICENTER":100.16,"MEAN_ANOMALY":259.9746,"EPHEMERIS_TYPE":0,"NORAD_CAT_ID":47268,"ELEMENT_SET_NO":999,"REV_AT_EPOCH":26740,"BSTAR":-0.00044151619,"MEAN_MOTION_DOT":-0.00000146,"MEAN_MOTION_DDOT":0},{"OBJECT_NAME":"ONEWEB-0123","OBJECT_ID":"2020-100M","EPOCH":"2026-07-08T22:25:32.171232","CLASSIFICATION_TYPE":"U","MEAN_MOTION":13.12443024,"ECCENTRICITY":0.00018966,"INCLINATION":87.8953,"RA_OF_ASC_NODE":346.3425,"ARG_OF_PERICENTER":92.4971,"MEAN_ANOMALY":267.6375,"EPHEMERIS_TYPE":0,"NORAD_CAT_ID":47269,"ELEMENT_SET_NO":999,"REV_AT_EPOCH":26754,"BSTAR":-0.00095935603,"MEAN_MOTION_DOT":-0.00000332,"MEAN_MOTION_DDOT":0},{"OBJECT_NAME":"ONEWEB-0124","OBJECT_ID":"2020-100N","EPOCH":"2026-07-09T16:28:42.771360","CLASSIFICATION_TYPE":"U","MEAN_MOTION":13.12442316,"ECCENTRICITY":0.0001725,"INCLINATION":87.895,"RA_OF_ASC_NODE":346.1959,"ARG_OF_PERICENTER":93.9916,"MEAN_ANOMALY":266.1409,"EPHEMERIS_TYPE":0,"NORAD_CAT_ID":47270,"ELEMENT_SET_NO":999,"REV_AT_EPOCH":26752,"BSTAR":-0.00099826,"MEAN_MOTION_DOT":-0.00000346,"MEAN_MOTION_DDOT":0},{"OBJECT_NAME":"ONEWEB-0125","OBJECT_ID":"2020-100P","EPOCH":"2026-07-09T15:57:00.487008","CLASSIFICATION_TYPE":"U","MEAN_MOTION":13.12442056,"ECCENTRICITY":0.0001643,"INCLINATION":87.8962,"RA_OF_ASC_NODE":346.1859,"ARG_OF_PERICENTER":86.7941,"MEAN_ANOMALY":273.3376,"EPHEMERIS_TYPE":0,"NORAD_CAT_ID":47271,"ELEMENT_SET_NO":999,"REV_AT_EPOCH":26758,"BSTAR":0.00085859,"MEAN_MOTION_DOT":0.00000322,"MEAN_MOTION_DDOT":0},{"OBJECT_NAME":"ONEWEB-0126","OBJECT_ID":"2020-100Q","EPOCH":"2026-07-08T22:08:40.299360","CLASSIFICATION_TYPE":"U","MEAN_MOTION":13.12442139,"ECCENTRICITY":0.00019478,"INCLINATION":87.8954,"RA_OF_ASC_NODE":346.3481,"ARG_OF_PERICENTER":94.5078,"MEAN_ANOMALY":265.6274,"EPHEMERIS_TYPE":0,"NORAD_CAT_ID":47272,"ELEMENT_SET_NO":999,"REV_AT_EPOCH":26755,"BSTAR":-0.0011265067,"MEAN_MOTION_DOT":-0.00000393,"MEAN_MOTION_DDOT":0},{"OBJECT_NAME":"ONEWEB-0127","OBJECT_ID":"2020-100R","EPOCH":"2026-07-08T19:29:54.102336","CLASSIFICATION_TYPE":"U","MEAN_MOTION":13.12442873,"ECCENTRICITY":0.00019818,"INCLINATION":87.8953,"RA_OF_ASC_NODE":346.3671,"ARG_OF_PERICENTER":96.5027,"MEAN_ANOMALY":263.6328,"EPHEMERIS_TYPE":0,"NORAD_CAT_ID":47273,"ELEMENT_SET_NO":999,"REV_AT_EPOCH":26756,"BSTAR":0.0011958898,"MEAN_MOTION_DOT":0.00000443,"MEAN_MOTION_DDOT":0},{"OBJECT_NAME":"ONEWEB-0128","OBJECT_ID":"2020-100S","EPOCH":"2026-07-09T16:09:12.254400","CLASSIFICATION_TYPE":"U","MEAN_MOTION":13.12441658,"ECCENTRICITY":0.0001718,"INCLINATION":87.8955,"RA_OF_ASC_NODE":346.2097,"ARG_OF_PERICENTER":105.7917,"MEAN_ANOMALY":254.3401,"EPHEMERIS_TYPE":0,"NORAD_CAT_ID":47274,"ELEMENT_SET_NO":999,"REV_AT_EPOCH":26769,"BSTAR":-0.000021342,"MEAN_MOTION_DOT":5e-8,"MEAN_MOTION_DDOT":0},{"OBJECT_NAME":"ONEWEB-0129","OBJECT_ID":"2020-100T","EPOCH":"2026-07-09T17:29:42.976032","CLASSIFICATION_TYPE":"U","MEAN_MOTION":13.12442724,"ECCENTRICITY":0.0002898,"INCLINATION":87.8959,"RA_OF_ASC_NODE":346.1747,"ARG_OF_PERICENTER":97.6796,"MEAN_ANOMALY":262.4662,"EPHEMERIS_TYPE":0,"NORAD_CAT_ID":47275,"ELEMENT_SET_NO":999,"REV_AT_EPOCH":26763,"BSTAR":0.0013412,"MEAN_MOTION_DOT":0.00000495,"MEAN_MOTION_DDOT":0},{"OBJECT_NAME":"ONEWEB-0130","OBJECT_ID":"2020-100U","EPOCH":"2026-07-09T16:18:57.767328","CLASSIFICATION_TYPE":"U","MEAN_MOTION":13.12441614,"ECCENTRICITY":0.0001858,"INCLINATION":87.8963,"RA_OF_ASC_NODE":346.1802,"ARG_OF_PERICENTER":98.4649,"MEAN_ANOMALY":261.669,"EPHEMERIS_TYPE":0,"NORAD_CAT_ID":47276,"ELEMENT_SET_NO":999,"REV_AT_EPOCH":26759,"BSTAR":-0.0006315,"MEAN_MOTION_DOT":-0.00000214,"MEAN_MOTION_DDOT":0},{"OBJECT_NAME":"ONEWEB-0131","OBJECT_ID":"2020-100V","EPOCH":"2026-07-09T16:14:05.167680","CLASSIFICATION_TYPE":"U","MEAN_MOTION":13.12441343,"ECCENTRICITY":0.0001765,"INCLINATION":87.8952,"RA_OF_ASC_NODE":346.197,"ARG_OF_PERICENTER":99.6175,"MEAN_ANOMALY":260.5153,"EPHEMERIS_TYPE":0,"NORAD_CAT_ID":47277,"ELEMENT_SET_NO":999,"REV_AT_EPOCH":26763,"BSTAR":-0.00029606,"MEAN_MOTION_DOT":-9.4e-7,"MEAN_MOTION_DDOT":0},{"OBJECT_NAME":"ONEWEB-0132","OBJECT_ID":"2020-100W","EPOCH":"2026-07-08T22:37:44.234976","CLASSIFICATION_TYPE":"U","MEAN_MOTION":13.12443439,"ECCENTRICITY":0.00018169,"INCLINATION":87.8956,"RA_OF_ASC_NODE":346.3449,"ARG_OF_PERICENTER":97.2124,"MEAN_ANOMALY":262.9211,"EPHEMERIS_TYPE":0,"NORAD_CAT_ID":47278,"ELEMENT_SET_NO":999,"REV_AT_EPOCH":26743,"BSTAR":-0.000017828103,"MEAN_MOTION_DOT":6e-8,"MEAN_MOTION_DDOT":0},{"OBJECT_NAME":"ONEWEB-0133","OBJECT_ID":"2020-100X","EPOCH":"2026-07-09T17:19:45.190848","CLASSIFICATION_TYPE":"U","MEAN_MOTION":13.12443976,"ECCENTRICITY":0.0001768,"INCLINATION":87.8968,"RA_OF_ASC_NODE":346.1685,"ARG_OF_PERICENTER":99.4588,"MEAN_ANOMALY":260.6741,"EPHEMERIS_TYPE":0,"NORAD_CAT_ID":47279,"ELEMENT_SET_NO":999,"REV_AT_EPOCH":26769,"BSTAR":0.0010678,"MEAN_MOTION_DOT":0.00000397,"MEAN_MOTION_DDOT":0},{"OBJECT_NAME":"ONEWEB-0134","OBJECT_ID":"2020-100Y","EPOCH":"2026-07-09T16:36:01.836288","CLASSIFICATION_TYPE":"U","MEAN_MOTION":13.12441743,"ECCENTRICITY":0.0001978,"INCLINATION":87.8966,"RA_OF_ASC_NODE":346.1718,"ARG_OF_PERICENTER":102.538,"MEAN_ANOMALY":257.5969,"EPHEMERIS_TYPE":0,"NORAD_CAT_ID":47280,"ELEMENT_SET_NO":999,"REV_AT_EPOCH":26766,"BSTAR":-0.0012429,"MEAN_MOTION_DOT":-0.00000434,"MEAN_MOTION_DDOT":0},{"OBJECT_NAME":"ONEWEB-0135","OBJECT_ID":"2020-100Z","EPOCH":"2026-07-08T19:46:58.190304","CLASSIFICATION_TYPE":"U","MEAN_MOTION":13.12441869,"ECCENTRICITY":0.0001886,"INCLINATION":87.8952,"RA_OF_ASC_NODE":346.364,"ARG_OF_PERICENTER":105.6652,"MEAN_ANOMALY":254.4685,"EPHEMERIS_TYPE":0,"NORAD_CAT_ID":47281,"ELEMENT_SET_NO":999,"REV_AT_EPOCH":26757,"BSTAR":0.0003124641,"MEAN_MOTION_DOT":0.00000125,"MEAN_MOTION_DDOT":0}]}
